[{"OBJECT_NAME":"STARLINK-3649","OBJECT_ID":"2022-025AA","EPOCH":"2026-03-09T22:21:48.426336","MEAN_MOTION":15.08835353,"ECCENTRICITY":0.00014383,"INCLINATION":53.2178,"RA_OF_ASC_NODE":38.031,"ARG_OF_PERICENTER":92.1104,"MEAN_ANOMALY":268.0053,"EPHEMERIS_TYPE":0,"CLASSIFICATION_TYPE":"U","NORAD_CAT_ID":51980,"ELEMENT_SET_NO":999,"REV_AT_EPOCH":22109,"BSTAR":-4.1581638e-5,"MEAN_MOTION_DOT":-9.5e-6,"MEAN_MOTION_DDOT":0},{"OBJECT_NAME":"JILIN-1 KUANFU 02A","OBJECT_ID":"2023-127A","EPOCH":"2026-03-09T22:42:00.221760","MEAN_MOTION":15.09948681,"ECCENTRICITY":0.0009702,"INCLINATION":97.5529,"RA_OF_ASC_NODE":164.1218,"ARG_OF_PERICENTER":318.2814,"MEAN_ANOMALY":41.7675,"EPHEMERIS_TYPE":0,"CLASSIFICATION_TYPE":"U","NORAD_CAT_ID":57696,"ELEMENT_SET_NO":999,"REV_AT_EPOCH":14065,"BSTAR":0.00045097028,"MEAN_MOTION_DOT":7.263e-5,"MEAN_MOTION_DDOT":0}]
